
    [{"name": "USA",
            "callingCodes": ["1"],
            "url": "/images/flag/us_64.png"
        },
        {
        "name": "AFG",
        "callingCodes": ["93"],
        "url": "/images/flag/af_64-1.png"
        },
        {
        "name": "ALB",
        "callingCodes": ["355"],
        "url": "/images/flag/al_64-1.png"
        },
        {
            "name": "DZA",
            "callingCodes": ["213"],
            "url": "/images/flag/ag_64-1.png"
        },
        {
            "name": "AND",
            "callingCodes": ["376"],
            "url": "/images/flag/ad_64-1.png"
        },
        {
            "name": "AGO",
            "callingCodes": ["93"],
            "url": "/images/flag/ao_64-1.png"
        },
        {
            "name": "ATG",
            "callingCodes": ["1268"],
            "url": "/images/flag/ag_64-1.png"
        }, {
            "name": "ARG",
            "callingCodes": ["54"],
            "url": "/images/flag/ar_64.png"
        },
        {
            "name": "ARM",
            "callingCodes": ["374"],
            "url": "/images/flag/am_64-1.png"
        }, {
            "name": "AUS",
            "callingCodes": ["61"],
            "url": "/images/flag/au_64.png"
        }, {
            "name": "AUT",
            "callingCodes": ["43"],
            "url": "/images/flag/at_64.png"
        }, {
            "name": "AZE",
            "callingCodes": ["994"],
            "url": "/images/flag/az_64-1.png"
        }, {
            "name": "BHS",
            "callingCodes": ["1242"],
            "url": "/images/flag/bs_64-1.png"
        }, {
            "name": "BHR",
            "callingCodes": ["973"],
            "url": "/images/flag/bh_64-1.png"
        }, {
            "name": "BGD",
            "callingCodes": ["880"],
            "url": "/images/flag/bd_64-1.png"
        }, {
            "name": "BRB",
            "callingCodes": ["1246"],
            "url": "/images/flag/bb_64-1.png"
        }, {
            "name": "BLR",
            "callingCodes": ["375"],
            "url": "/images/flag/by_64.png"
        }, {
            "name": "BEL",
            "callingCodes": ["32"],
            "url": "/images/flag/be_64.png"
        }, {
            "name": "BLZ",
            "callingCodes": ["501"],
            "url": "/images/flag/bz_64.png"
        },
        {
            "name": "BEN",
            "callingCodes": ["229"],
            "url": "/images/flag/bj_64-1.png"
        }, {
            "name": "BTN",
            "callingCodes": ["975"],
            "url": "/images/flag/bt_64.png"
        }, {
            "name": "BOL",
            "callingCodes": ["591"],
            "url": "/images/flag/bo_64-1.png"
        }, {
            "name": "BIH",
            "callingCodes": ["387"],
            "url": "/images/flag/ba_64-1.png"
        }, {
            "name": "BWA",
            "callingCodes": ["267"],
            "url": "/images/flag/bt_64.png"
        }, {
            "name": "BRA",
            "callingCodes": ["55"],
            "url": "/images/flag/br_64-1.png"
        }, {
            "name": "BRN",
            "callingCodes": ["673"],
            "url": "/images/flag/bn_64-1.png"
        }, {
            "name": "BGR",
            "callingCodes": ["359"],
            "url": "/images/flag/bg_64-1.png"
        }, {
            "name": "BFA",
            "callingCodes": ["226"],
            "url": "/images/flag/bf_64-1.png"
        }, {
            "name": "BDI",
            "callingCodes": ["257"],
            "url": "/images/flag/bh_64-1.png"
        }, {
            "name": "CPV",
            "callingCodes": ["238"],
            "url": "/images/flag/cv_64.png"
        }, {
            "name": "KHM",
            "callingCodes": ["855"],
            "url": "/images/flag/kh_64.png"
        }, {
            "name": "CMR",
            "callingCodes": ["237"],
            "url": "/images/flag/cm_64.png"
        }, {
            "name": "CAN",
            "callingCodes": ["01"],
            "url": "/images/flag/ca_64.png"
        }, {
            "name": "CAF",
            "callingCodes": ["236"],
            "url": "/images/flag/cf_64.png"
        }, {
            "name": "TCD",
            "callingCodes": ["235"],
            "url": "/images/flag/td_64.png"
        }, {
            "name": "CHL",
            "callingCodes": ["56"],
            "url": "/images/flag/cl_64.png"
        }, {
            "name": "CHN",
            "callingCodes": ["86"],
            "url": "/images/flag/cn_64.png"
        }, {
            "name": "COL",
            "callingCodes": ["57"],
            "url": "/images/flag/co_64.png"
        }, {
            "name": "COM",
            "callingCodes": ["269"],
            "url": "/images/flag/km_64.png"
        }, {
            "name": "COD",
            "callingCodes": ["243"],
            "url": "/images/flag/cd_64.png"
        }, {
            "name": "COG",
            "callingCodes": ["242"],
            "url": "/images/flag/cg_64.png"
        }, {
            "name": "CRI",
            "callingCodes": ["506"],
            "url": "/images/flag/cr_64.png"
        }, {
            "name": "CIV",
            "callingCodes": ["225"],
            "url": "/images/flag/ci_64.png"
        }, {
            "name": "HRV",
            "callingCodes": ["385"],
            "url": "/images/flag/hr_64.png"
        }, {
            "name": "CUB",
            "callingCodes": ["53"],
            "url": "/images/flag/cr_64.png"
        }, {
            "name": "CYP",
            "callingCodes": ["357"],
            "url": "/images/flag/cy_64.png"
        }, {
            "name": "CZE",
            "callingCodes": ["420"],
            "url": "/images/flag/cz_64.png"
        }, {
            "name": "DNK",
            "callingCodes": ["45"],
            "url": "/images/flag/dk_64.png"
        }, {
            "name": "DJI",
            "callingCodes": ["253"],
            "url": "/images/flag/dj_64.png"
        }, {
            "name": "DMA",
            "callingCodes": ["1767"],
            "url": "/images/flag/dm_64.png"
        }, {
            "name": "DOM",
            "callingCodes": ["18"],
            "url": "/images/flag/do_64.png"
        }, {
            "name": "ECU",
            "callingCodes": ["593"],
            "url": "/images/flag/ec_64.png"
        }, {
            "name": "EGY",
            "callingCodes": ["20"],
            "url": "/images/flag/eg_64.png"
        }, {
            "name": "SLV",
            "callingCodes": ["503"],
            "url": "/images/flag/sv_64.png"
        }, {
            "name": "GNQ",
            "callingCodes": ["240"],
            "url": "/images/flag/gq_64.png"
        }, {
            "name": "ERI",
            "callingCodes": ["291"],
            "url": "/images/flag/er_64.png"
        }, {
            "name": "EST",
            "callingCodes": ["372"],
            "url": "/images/flag/ee_64.png"
        }, {
            "name": "ETH",
            "callingCodes": ["251"],
            "url": "/images/flag/et_64.png"
        }, {
            "name": "FJI",
            "callingCodes": ["679"],
            "url": "/images/flag/fj_64.png"
        }, {
            "name": "FIN",
            "callingCodes": ["358"],
            "url": "/images/flag/fi_64.png"
        }, {
            "name": "FRA",
            "callingCodes": ["33"],
            "url": "/images/flag/fr_64.png"
        }, {
            "name": "GAB",
            "callingCodes": ["241"],
            "url": "/images/flag/ga_64.png"
        }, {
            "name": "GMB",
            "callingCodes": ["220"],
            "url": "/images/flag/gm_64.png"
        }, {
            "name": "GEO",
            "callingCodes": ["995"],
            "url": "/images/flag/ge_64.png"
        }, {
            "name": "DEU",
            "callingCodes": ["49"],
            "url": "/images/flag/de_64.png"
        }, {
            "name": "GHA",
            "callingCodes": ["233"],
            "url": "/images/flag/gh_64.png"
        }, {
            "name": "GRC",
            "callingCodes": ["30"],
            "url": "/images/flag/gr_64.png"
        }, {
            "name": "GRD",
            "callingCodes": ["1473"],
            "url": "/images/flag/gd_64.png"
        }, {
            "name": "GTM",
            "callingCodes": ["502"],
            "url": "/images/flag/gt_64.png"
        }, {
            "name": "GIN",
            "callingCodes": ["224"],
            "url": "/images/flag/gn_64.png"
        }, {
            "name": "GNB",
            "callingCodes": ["245"],
            "url": "/images/flag/gw_64.png"
        }, {
            "name": "GUY",
            "callingCodes": ["592"],
            "url": "/images/flag/gy_64.png"
        }, {
            "name": "HTI",
            "callingCodes": ["509"],
            "url": "/images/flag/ht_64.png"
        }, {
            "name": "HND",
            "callingCodes": ["504"],
            "url": "/images/flag/hn_64.png"
        }, {
            "name": "HUN",
            "callingCodes": ["36"],
            "url": "/images/flag/hu_64.png"
        }, {
            "name": "ISL",
            "callingCodes": ["354"],
            "url": "/images/flag/is_64.png"
        }, {
            "name": "IND",
            "callingCodes": ["91"],
            "url": "/images/flag/in_64.png"
        }, {
            "name": "IDN",
            "callingCodes": ["62"],
            "url": "/images/flag/id_64.png"
        }, {
            "name": "IRN",
            "callingCodes": ["98"],
            "url": "/images/flag/ir_64.png"
        }, {
            "name": "IRQ",
            "callingCodes": ["964"],
            "url": "/images/flag/iq_64.png"
        }, {
            "name": "IRL",
            "callingCodes": ["353"],
            "url": "/images/flag/ie_64.png"
        }, {
            "name": "ISR",
            "callingCodes": ["972"],
            "url": "/images/flag/il_64.png"
        }, {
            "name": "ITA",
            "callingCodes": ["39"],
            "url": "/images/flag/it_64.png"
        }, {
            "name": "JAM",
            "callingCodes": ["1876"],
            "url": "/images/flag/jm_64.png"
        }, {
            "name": "JPN",
            "callingCodes": ["81"],
            "url": "/images/flag/jp_64.png"
        }, {
            "name": "JOR",
            "callingCodes": ["962"],
            "url": "/images/flag/jo_64.png"
        }, {
            "name": "KAZ",
            "callingCodes": ["76","77"],
            "url": "/images/flag/kz_64.png"
        }, {
            "name": "KEN",
            "callingCodes": ["254"],
            "url": "/images/flag/ke_64.png"
        }, {
            "name": "KIR",
            "callingCodes": ["686"],
            "url": "/images/flag/ki_64.png"
        }, {
            "name": "Kosovo",
            "callingCodes": ["383"],
            "url": "/images/flag/af_64-1.png"
        }, {
            "name": "KWT",
            "callingCodes": ["965"],
            "url": "/images/flag/kw_64.png"
        }, {
            "name": "KGZ",
            "callingCodes": ["93"],
            "url": "/images/flag/kg_64.png"
        }, {
            "name": "Laos",
            "callingCodes": ["856"],
            "url": "/images/flag/la_64.png"
        }, {
            "name": "LVA",
            "callingCodes": ["371"],
            "url": "/images/flag/lv_64.png"
        }, {
            "name": "LBN",
            "callingCodes": ["961"],
            "url": "/images/flag/lb_64.png"
        }, {
            "name": "LSO",
            "callingCodes": ["266"],
            "url": "/images/flag/ls_64.png"
        }, {
            "name": "LBR",
            "callingCodes": ["231"],
            "url": "/images/flag/lr_64.png"
        }, {
            "name": "LBY",
            "callingCodes": ["218"],
            "url": "/images/flag/ly_64.png"
        }, {
            "name": "LIE",
            "callingCodes": ["423"],
            "url": "/images/flag/li_64.png"
        }, {
            "name": "LTU",
            "callingCodes": ["370"],
            "url": "/images/flag/lt_64.png"
        }, {
            "name": "LUX",
            "callingCodes": ["352"],
            "url": "/images/flag/lu_64.png"
        }, {
            "name": "MKD",
            "callingCodes": ["389"],
            "url": "/images/flag/mk_64.png"
        }, {
            "name": "MDG",
            "callingCodes": ["261"],
            "url": "/images/flag/mg_64.png"
        }, {
            "name": "MWI",
            "callingCodes": ["265"],
            "url": "/images/flag/mw_64.png"
        }, {
            "name": "MYS",
            "callingCodes": ["60"],
            "url": "/images/flag/my_64.png"
        }, {
            "name": "MDV",
            "callingCodes": ["960"],
            "url": "/images/flag/mv_64.png"
        }, {
            "name": "MLI",
            "callingCodes": ["223"],
            "url": "/images/flag/ml_64.png"
        }, {
            "name": "MLT",
            "callingCodes": ["356"],
            "url": "/images/flag/mt_64.png"
        }, {
            "name": "MHL",
            "callingCodes": ["692"],
            "url": "/images/flag/mh_64.png"
        }, {
            "name": "MRT",
            "callingCodes": ["222"],
            "url": "/images/flag/mr_64.png"
        }, {
            "name": "MUS",
            "callingCodes": ["230"],
            "url": "/images/flag/mu_64.png"
        }, {
            "name": "MEX",
            "callingCodes": ["52"],
            "url": "/images/flag/mx_64.png"
        }, {
            "name": "FSM",
            "callingCodes": ["691"],
            "url": "/images/flag/fm_64.png"
        }, {
            "name": "MDA",
            "callingCodes": ["373"],
            "url": "/images/flag/md_64.png"
        }, {
            "name": "MCO",
            "callingCodes": ["377"],
            "url": "/images/flag/mc_64.png"
        }, {
            "name": "MNG",
            "callingCodes": ["976"],
            "url": "/images/flag/mn_64.png"
        }, {
            "name": "MNE",
            "callingCodes": ["382"],
            "url": "/images/flag/me_64.png"
        }, {
            "name": "MAR",
            "callingCodes": ["212"],
            "url": "/images/flag/ma_64.png"
        }, {
            "name": "MOZ",
            "callingCodes": ["258"],
            "url": "/images/flag/mz_64.png"
        }, {
            "name": "MMR",
            "callingCodes": ["95"],
            "url": "/images/flag/mm_64.png"
        }, {
            "name": "NAM",
            "callingCodes": ["264"],
            "url": "/images/flag/na_64.png"
        }, {
            "name": "NRU",
            "callingCodes": ["674"],
            "url": "/images/flag/nr_64.png"
        }, {
            "name": "NPL",
            "callingCodes": ["977"],
            "url": "/images/flag/np_64.png"
        }, {
            "name": "NLD",
            "callingCodes": ["93"],
            "url": "/images/flag/nl_64.png"
        }, {
            "name": "NZL",
            "callingCodes": ["64"],
            "url": "/images/flag/nz_64.png"
        }, {
            "name": "NIC",
            "callingCodes": ["505"],
            "url": "/images/flag/ni_64.png"
        }, {
            "name": "NER",
            "callingCodes": ["227"],
            "url": "/images/flag/ne_64.png"
        }, {
            "name": "NGA",
            "callingCodes": ["234"],
            "url": "/images/flag/ng_64.png"
        }, {
            "name": "KP",
            "callingCodes": ["850"],
            "url": "/images/flag/kp_64.png"
        }, {
            "name": "NOR",
            "callingCodes": ["47"],
            "url": "/images/flag/no_64.png"
        }, {
            "name": "OMN",
            "callingCodes": ["968"],
            "url": "/images/flag/om_64.png"
        }, {
            "name": "PAK",
            "callingCodes": ["92"],
            "url": "/images/flag/pk_64.png"
        }, {
            "name": "PLW",
            "callingCodes": ["680"],
            "url": "/images/flag/pw_64.png"
        }, {
            "name": "PSE",
            "callingCodes": ["970"],
            "url": "/images/flag/ps_64.png"
        }, {
            "name": "PAN",
            "callingCodes": ["507"],
            "url": "/images/flag/pa_64.png"
        }, {
            "name": "PNG",
            "callingCodes": ["675"],
            "url": "/images/flag/pg_64.png"
        }, {
            "name": "PRY",
            "callingCodes": ["595"],
            "url": "/images/flag/py_64.png"
        }, {
            "name": "PER",
            "callingCodes": ["51"],
            "url": "/images/flag/pe_64.png"
        }, {
            "name": "PHL",
            "callingCodes": ["63"],
            "url": "/images/flag/ph_64.png"
        }, {
            "name": "POL",
            "callingCodes": ["48"],
            "url": "/images/flag/pl_64.png"
        }, {
            "name": "PRT",
            "callingCodes": ["351"],
            "url": "/images/flag/pt_64.png"
        }, {
            "name": "QAT",
            "callingCodes": ["974"],
            "url": "/images/flag/qa_64.png"
        }, {
            "name": "ROU",
            "callingCodes": ["40"],
            "url": "/images/flag/ro_64.png"
        }, {
            "name": "RUS",
            "callingCodes": ["7"],
            "url": "/images/flag/ru_64.png"
        }, {
            "name": "RWA",
            "callingCodes": ["250"],
            "url": "/images/flag/rw_64.png"
        }, {
            "name": "KNA",
            "callingCodes": ["1869"],
            "url": "/images/flag/kn_64.png"
        }, {
            "name": "LCA",
            "callingCodes": ["1758"],
            "url": "/images/flag/lc_64.png"
        }, {
            "name": "VCT",
            "callingCodes": ["1784"],
            "url": "/images/flag/vc_64.png"
        }, {
            "name": "WSM",
            "callingCodes": ["685"],
            "url": "/images/flag/ws_64.png"
        }, {
            "name": "SMR",
            "callingCodes": ["378"],
            "url": "/images/flag/sm_64.png"
        }, {
            "name": "STP",
            "callingCodes": ["239"],
            "url": "/images/flag/st_64.png"
        }, {
            "name": "SAU",
            "callingCodes": ["966"],
            "url": "/images/flag/sa_64.png"
        }, {
            "name": "SEN",
            "callingCodes": ["221"],
            "url": "/images/flag/sn_64.png"
        }, {
            "name": "SRB",
            "callingCodes": ["381"],
            "url": "/images/flag/rs_64.png"
        }, {
            "name": "SYC",
            "callingCodes": ["248"],
            "url": "/images/flag/sc_64.png"
        }, {
            "name": "SLE",
            "callingCodes": ["232"],
            "url": "/images/flag/sl_64.png"
        }, {
            "name": "SGP",
            "callingCodes": ["65"],
            "url": "/images/flag/sg_64.png"
        }, {
            "name": "SVK",
            "callingCodes": ["421"],
            "url": "/images/flag/sk_64.png"
        }, {
            "name": "SVN",
            "callingCodes": ["386"],
            "url": "/images/flag/si_64.png"
        }, {
            "name": "SLB",
            "callingCodes": ["677"],
            "url": "/images/flag/sb_64.png"
        }, {
            "name": "SOM",
            "callingCodes": ["252"],
            "url": "/images/flag/so_64.png"
        }, {
            "name": "ZAF",
            "callingCodes": ["27"],
            "url": "/images/flag/za_64.png"
        }, {
            "name": "KR",
            "callingCodes": ["82"],
            "url": "/images/flag/kr_64.png"
        }, {
            "name": "SSD",
            "callingCodes": ["211"],
            "url": "/images/flag/ss_64.png"
        }, {
            "name": "ESP",
            "callingCodes": ["34"],
            "url": "/images/flag/es_64.png"
        }, {
            "name": "LKA",
            "callingCodes": ["94"],
            "url": "/images/flag/lk_64.png"
        }, {
            "name": "SDN",
            "callingCodes": ["249"],
            "url": "/images/flag/sd_64.png"
        }, {
            "name": "SUR",
            "callingCodes": ["597"],
            "url": "/images/flag/sr_64.png"
        }, {
            "name": "SWZ",
            "callingCodes": ["268"],
            "url": "/images/flag/sz_64.png"
        }, {
            "name": "SWE",
            "callingCodes": ["46"],
            "url": "/images/flag/se_64.png"
        }, {
            "name": "CHE",
            "callingCodes": ["41"],
            "url": "/images/flag/ch_64.png"
        }, {
            "name": "SYR",
            "callingCodes": ["963"],
            "url": "/images/flag/sy_64.png"
        }, {
            "name": "TWN",
            "callingCodes": ["886"],
            "url": "/images/flag/tw_64.png"
        }, {
            "name": "TJK",
            "callingCodes": ["992"],
            "url": "/images/flag/tj_64.png"
        }, {
            "name": "TZ",
            "callingCodes": ["255"],
            "url": "/images/flag/tz_64.png"
        }, {
            "name": "THA",
            "callingCodes": ["66"],
            "url": "/images/flag/th_64.png"
        }, {
            "name": "TLS",
            "callingCodes": ["670"],
            "url": "/images/flag/tl_64.png"
        }, {
            "name": "TGO",
            "callingCodes": ["228"],
            "url": "/images/flag/tg_64.png"
        }, {
            "name": "TON",
            "callingCodes": ["676"],
            "url": "/images/flag/to_64.png"
        }, {
            "name": "TTO",
            "callingCodes": ["1868"],
            "url": "/images/flag/tt_64.png"
        }, {
            "name": "TUN",
            "callingCodes": ["216"],
            "url": "/images/flag/tn_64.png"
        }, {
            "name": "TUR",
            "callingCodes": ["90"],
            "url": "/images/flag/tr_64.png"
        }, {
            "name": "TKM",
            "callingCodes": ["993"],
            "url": "/images/flag/tm_64.png"
        }, {
            "name": "TUV",
            "callingCodes": ["688"],
            "url": "/images/flag/tv_64.png"
        }, {
            "name": "UGA",
            "callingCodes": ["256"],
            "url": "/images/flag/ug_64.png"
        }, {
            "name": "UKR",
            "callingCodes": ["380"],
            "url": "/images/flag/ua_64.png"
        }, {
            "name": "ARE",
            "callingCodes": ["971"],
            "url": "/images/flag/ae_64-1.png"
        }, {
            "name": "GBR",
            "callingCodes": ["44"],
            "url": "/images/flag/gb_64.png"
        }, {
            "name": "URY",
            "callingCodes": ["598"],
            "url": "/images/flag/uy_64.png"
        }, {
            "name": "UZB",
            "callingCodes": ["998"],
            "url": "/images/flag/uz_64.png"
        }, {
            "name": "VUT",
            "callingCodes": ["678"],
            "url": "/images/flag/vu_64.png"
        }, {
            "name": "VAT",
            "callingCodes": ["379"],
            "url": "/images/flag/va_64.png"
        }, {
            "name": "VEN",
            "callingCodes": ["58"],
            "url": "/images/flag/ve_64.png"
        }, {
            "name": "VNM",
            "callingCodes": ["84"],
            "url": "/images/flag/vn_64.png"
        }, {
            "name": "YEM",
            "callingCodes": ["967"],
            "url": "/images/flag/ye_64.png"
        }, {
            "name": "ZMB",
            "callingCodes": ["260"],
            "url": "/images/flag/zm_64.png"
        }, {
            "name": "ZWE",
            "callingCodes": ["263"],
            "url": "/images/flag/zw_64.png"
        }]
